{
  "type": "FeatureCollection",
  "features": [
    {
      "type": "Feature",
      "properties": {
        "norad_id": 66404,
        "name": "STARLINK-35691",
        "group": "last-30-days",
        "lat": 45.84852603337306,
        "lon": 56.14168970115741,
        "alt_km": 411.1271457954317,
        "timestamp": "2025-12-07T22:37:41.855658+00:00",
        "meta_object_name": "STARLINK-35691",
        "meta_object_id": "2025-257AA",
        "meta_epoch": "2025-12-07T03:33:03.888288",
        "meta_mean_motion": 15.4926064,
        "meta_eccentricity": 0.00017049,
        "meta_inclination": 53.1596,
        "meta_ra_of_asc_node": 290.5022,
        "meta_arg_of_pericenter": 106.4863,
        "meta_mean_anomaly": 253.6333,
        "meta_ephemeris_type": 0,
        "meta_classification_type": "U",
        "meta_norad_cat_id": 66404,
        "meta_element_set_no": 999,
        "meta_rev_at_epoch": 551,
        "meta_bstar": 0.0019210549,
        "meta_mean_motion_dot": 0.00107694,
        "meta_mean_motion_ddot": 0,
        "tle_line1": "1 66404U 25257AA  25341.14796167  .00107694  00000+0  19211-2 0  9999",
        "tle_line2": "2 66404  53.1596 290.5022 0001704 106.4863 253.6333 15.49260640  5514"
      },
      "geometry": {
        "type": "Point",
        "coordinates": [
          56.14168970115741,
          45.84852603337306
        ]
      }
    },
    {
      "type": "Feature",
      "properties": {
        "norad_id": 66405,
        "name": "STARLINK-35683",
        "group": "last-30-days",
        "lat": 44.75249450858974,
        "lon": 58.68715229478355,
        "alt_km": 412.08629346178986,
        "timestamp": "2025-12-07T22:37:41.855669+00:00",
        "meta_object_name": "STARLINK-35683",
        "meta_object_id": "2025-257AB",
        "meta_epoch": "2025-12-07T06:38:21.607872",
        "meta_mean_motion": 15.49385412,
        "meta_eccentricity": 9.049e-05,
        "meta_inclination": 53.1609,
        "meta_ra_of_asc_node": 289.8828,
        "meta_arg_of_pericenter": 40.8306,
        "meta_mean_anomaly": 319.2771,
        "meta_ephemeris_type": 0,
        "meta_classification_type": "U",
        "meta_norad_cat_id": 66405,
        "meta_element_set_no": 999,
        "meta_rev_at_epoch": 546,
        "meta_bstar": 0.0014787582,
        "meta_mean_motion_dot": 0.00082894,
        "meta_mean_motion_ddot": 0,
        "tle_line1": "1 66405U 25257AB  25341.27663898  .00082894  00000+0  14788-2 0  9996",
        "tle_line2": "2 66405  53.1609 289.8828 0000904  40.8306 319.2771 15.49385412  5463"
      },
      "geometry": {
        "type": "Point",
        "coordinates": [
          58.68715229478355,
          44.75249450858974
        ]
      }
    },
    {
      "type": "Feature",
      "properties": {
        "norad_id": 66406,
        "name": "STARLINK-34840",
        "group": "last-30-days",
        "lat": 41.50348803249582,
        "lon": 65.1232090250287,
        "alt_km": 412.2292770125905,
        "timestamp": "2025-12-07T22:37:41.855680+00:00",
        "meta_object_name": "STARLINK-34840",
        "meta_object_id": "2025-257AC",
        "meta_epoch": "2025-12-07T06:36:52.046496",
        "meta_mean_motion": 15.4933642,
        "meta_eccentricity": 0.00012255,
        "meta_inclination": 53.1588,
        "meta_ra_of_asc_node": 289.8753,
        "meta_arg_of_pericenter": 75.6016,
        "meta_mean_anomaly": 284.5129,
        "meta_ephemeris_type": 0,
        "meta_classification_type": "U",
        "meta_norad_cat_id": 66406,
        "meta_element_set_no": 999,
        "meta_rev_at_epoch": 547,
        "meta_bstar": 0.0018456505,
        "meta_mean_motion_dot": 0.00103672,
        "meta_mean_motion_ddot": 0,
        "tle_line1": "1 66406U 25257AC  25341.27560239  .00103672  00000+0  18457-2 0  9997",
        "tle_line2": "2 66406  53.1588 289.8753 0001225  75.6016 284.5129 15.49336420  5475"
      },
      "geometry": {
        "type": "Point",
        "coordinates": [
          65.1232090250287,
          41.50348803249582
        ]
      }
    },
    {
      "type": "Feature",
      "properties": {
        "norad_id": 66407,
        "name": "STARLINK-35686",
        "group": "last-30-days",
        "lat": 43.57990538179766,
        "lon": 61.171045326441494,
        "alt_km": 411.3108735051992,
        "timestamp": "2025-12-07T22:37:41.855693+00:00",
        "meta_object_name": "STARLINK-35686",
        "meta_object_id": "2025-257AD",
        "meta_epoch": "2025-12-07T06:37:50.728512",
        "meta_mean_motion": 15.49392932,
        "meta_eccentricity": 0.00012662,
        "meta_inclination": 53.1588,
        "meta_ra_of_asc_node": 289.8788,
        "meta_arg_of_pericenter": 98.048,
        "meta_mean_anomaly": 262.0672,
        "meta_ephemeris_type": 0,
        "meta_classification_type": "U",
        "meta_norad_cat_id": 66407,
        "meta_element_set_no": 999,
        "meta_rev_at_epoch": 553,
        "meta_bstar": 0.0027900349,
        "meta_mean_motion_dot": 0.00158374,
        "meta_mean_motion_ddot": 0,
        "tle_line1": "1 66407U 25257AD  25341.27628158  .00158374  00000+0  27900-2 0  9995",
        "tle_line2": "2 66407  53.1588 289.8788 0001266  98.0480 262.0672 15.49392932  5534"
      },
      "geometry": {
        "type": "Point",
        "coordinates": [
          61.171045326441494,
          43.57990538179766
        ]
      }
    },
    {
      "type": "Feature",
      "properties": {
        "norad_id": 66408,
        "name": "STARLINK-35679",
        "group": "last-30-days",
        "lat": 42.63763754131817,
        "lon": 63.03118280164232,
        "alt_km": 411.87252068291764,
        "timestamp": "2025-12-07T22:37:41.855703+00:00",
        "meta_object_name": "STARLINK-35679",
        "meta_object_id": "2025-257AE",
        "meta_epoch": "2025-12-07T05:04:27.952896",
        "meta_mean_motion": 15.49312249,
        "meta_eccentricity": 0.00011643,
        "meta_inclination": 53.1586,
        "meta_ra_of_asc_node": 290.1876,
        "meta_arg_of_pericenter": 106.4329,
        "meta_mean_anomaly": 253.6808,
        "meta_ephemeris_type": 0,
        "meta_classification_type": "U",
        "meta_norad_cat_id": 66408,
        "meta_element_set_no": 999,
        "meta_rev_at_epoch": 552,
        "meta_bstar": 0.0019260579,
        "meta_mean_motion_dot": 0.00108178,
        "meta_mean_motion_ddot": 0,
        "tle_line1": "1 66408U 25257AE  25341.21143464  .00108178  00000+0  19261-2 0  9990",
        "tle_line2": "2 66408  53.1586 290.1876 0001164 106.4329 253.6808 15.49312249  5528"
      },
      "geometry": {
        "type": "Point",
        "coordinates": [
          63.03118280164232,
          42.63763754131817
        ]
      }
    },
    {
      "type": "Feature",
      "properties": {
        "norad_id": 66409,
        "name": "CHUTIAN-2 A",
        "group": "last-30-days",
        "lat": -68.00646695728021,
        "lon": -154.33879143770884,
        "alt_km": 727.9456799078362,
        "timestamp": "2025-12-07T22:37:41.855714+00:00",
        "meta_object_name": "CHUTIAN-2 A",
        "meta_object_id": "2025-256A",
        "meta_epoch": "2025-12-07T06:34:31.354464",
        "meta_mean_motion": 14.49930829,
        "meta_eccentricity": 0.001342,
        "meta_inclination": 98.2777,
        "meta_ra_of_asc_node": 46.1318,
        "meta_arg_of_pericenter": 194.3287,
        "meta_mean_anomaly": 165.7528,
        "meta_ephemeris_type": 0,
        "meta_classification_type": "U",
        "meta_norad_cat_id": 66409,
        "meta_element_set_no": 999,
        "meta_rev_at_epoch": 408,
        "meta_bstar": 0.0003502438,
        "meta_mean_motion_dot": 1.312e-05,
        "meta_mean_motion_ddot": 0,
        "tle_line1": "1 66409U 25256A   25341.27397401  .00001312  00000+0  35024-3 0  9996",
        "tle_line2": "2 66409  98.2777  46.1318 0013420 194.3287 165.7528 14.49930829  4089"
      },
      "geometry": {
        "type": "Point",
        "coordinates": [
          -154.33879143770884,
          -68.00646695728021
        ]
      }
    },
    {
      "type": "Feature",
      "properties": {
        "norad_id": 66410,
        "name": "CHUTIAN-2 B",
        "group": "last-30-days",
        "lat": -31.90405408608537,
        "lon": 52.032795064405576,
        "alt_km": 734.7771785234099,
        "timestamp": "2025-12-07T22:37:41.855725+00:00",
        "meta_object_name": "CHUTIAN-2 B",
        "meta_object_id": "2025-256B",
        "meta_epoch": "2025-12-07T06:13:37.987680",
        "meta_mean_motion": 14.51015508,
        "meta_eccentricity": 0.00134979,
        "meta_inclination": 98.2802,
        "meta_ra_of_asc_node": 46.1587,
        "meta_arg_of_pericenter": 198.0623,
        "meta_mean_anomaly": 162.0094,
        "meta_ephemeris_type": 0,
        "meta_classification_type": "U",
        "meta_norad_cat_id": 66410,
        "meta_element_set_no": 999,
        "meta_rev_at_epoch": 408,
        "meta_bstar": 0.00033640509,
        "meta_mean_motion_dot": 1.288e-05,
        "meta_mean_motion_ddot": 0,
        "tle_line1": "1 66410U 25256B   25341.25946745  .00001288  00000+0  33641-3 0  9992",
        "tle_line2": "2 66410  98.2802  46.1587 0013497 198.0623 162.0094 14.51015508  4086"
      },
      "geometry": {
        "type": "Point",
        "coordinates": [
          52.032795064405576,
          -31.90405408608537
        ]
      }
    }
  ]
}